ONEWEB-0158             
1 48054U 21025N   25283.95140291 -.00000137  00000+0 -41139-3 0  9995
2 48054  87.9059   9.7313 0001566 108.3007 251.8293 13.13469153220911
ONEWEB-0157             
1 48055U 21025P   25283.21502072  .00000081  00000+0  18758-3 0  9991
2 48055  87.9053   9.8844 0002260 101.1635 258.9748 13.13470152220752
ONEWEB-0162             
1 48056U 21025Q   25283.95296412 -.00000202  00000+0 -58853-3 0  9998
2 48056  87.9057   9.7386 0001886  99.7304 260.4039 13.13469050220829
ONEWEB-0155             
1 48057U 21025R   25283.65515532 -.00000323  00000+0 -91935-3 0  9995
2 48057  87.9053   9.8041 0001962 105.7273 254.4072 13.13469473220923
ONEWEB-0149             
1 48058U 21025S   25283.52480696  .00000224  00000+0  57733-3 0  9990
2 48058  87.9050   9.8239 0001914  94.1923 265.9425 13.13470036220713
ONEWEB-0148             
1 48059U 21025T   25283.94462536 -.00000009  00000+0 -59798-4 0  9997
2 48059  87.9047   9.7643 0002171  85.2584 274.8793 13.13469720220892
ONEWEB-0160             
1 48060U 21025U   25283.96155340 -.00000191  00000+0 -55715-3 0  9999
2 48060  87.9044   9.7582 0001026 108.3517 251.7724 13.13469545220842
ONEWEB-0163             
1 48061U 21025V   25283.94633668  .00000437  00000+0  11630-2 0  9990
2 48061  87.9055   9.7430 0002201 101.9319 258.2057 13.13467977220963
